{
  "type": "FeatureCollection",
  "features": [
    {
      "type": "Feature",
      "properties": {
        "norad_id": 40362,
        "name": "YAOGAN-26",
        "group": "resource",
        "lat": -48.66014415520784,
        "lon": 154.89397627175896,
        "alt_km": 460.44393861536537,
        "timestamp": "2025-12-08T03:50:06.662100+00:00",
        "meta_object_name": "YAOGAN-26",
        "meta_object_id": "2014-088A",
        "meta_epoch": "2025-12-07T06:33:26.360928",
        "meta_mean_motion": 15.39015344,
        "meta_eccentricity": 0.00068372,
        "meta_inclination": 97.0641,
        "meta_ra_of_asc_node": 342.1425,
        "meta_arg_of_pericenter": 45.2571,
        "meta_mean_anomaly": 314.9231,
        "meta_ephemeris_type": 0,
        "meta_classification_type": "U",
        "meta_norad_cat_id": 40362,
        "meta_element_set_no": 999,
        "meta_rev_at_epoch": 60810,
        "meta_bstar": 0.00069754425,
        "meta_mean_motion_dot": 0.0002695,
        "meta_mean_motion_ddot": 0,
        "tle_line1": "1 40362U 14088A   25341.27322177  .00026950  00000+0  69754-3 0  9997",
        "tle_line2": "2 40362  97.0641 342.1425 0006837  45.2571 314.9231 15.39015344608106"
      },
      "geometry": {
        "type": "Point",
        "coordinates": [
          154.89397627175896,
          -48.66014415520784
        ]
      }
    },
    {
      "type": "Feature",
      "properties": {
        "norad_id": 40376,
        "name": "SMAP",
        "group": "resource",
        "lat": -72.16723346841701,
        "lon": 13.328716419483897,
        "alt_km": 690.5158322805792,
        "timestamp": "2025-12-08T03:50:06.662111+00:00",
        "meta_object_name": "SMAP",
        "meta_object_id": "2015-003A",
        "meta_epoch": "2025-12-07T06:50:21.890112",
        "meta_mean_motion": 14.63334482,
        "meta_eccentricity": 0.0001212,
        "meta_inclination": 98.129,
        "meta_ra_of_asc_node": 346.0874,
        "meta_arg_of_pericenter": 87.7132,
        "meta_mean_anomaly": 272.4209,
        "meta_ephemeris_type": 0,
        "meta_classification_type": "U",
        "meta_norad_cat_id": 40376,
        "meta_element_set_no": 999,
        "meta_rev_at_epoch": 57955,
        "meta_bstar": 0.00021585885,
        "meta_mean_motion_dot": 1.068e-05,
        "meta_mean_motion_ddot": 0,
        "tle_line1": "1 40376U 15003A   25341.28497558  .00001068  00000+0  21586-3 0  9991",
        "tle_line2": "2 40376  98.1290 346.0874 0001212  87.7132 272.4209 14.63334482579552"
      },
      "geometry": {
        "type": "Point",
        "coordinates": [
          13.328716419483897,
          -72.16723346841701
        ]
      }
    },
    {
      "type": "Feature",
      "properties": {
        "norad_id": 40536,
        "name": "KOMPSAT-3A",
        "group": "resource",
        "lat": 81.78885912562555,
        "lon": -154.52017169566693,
        "alt_km": 425.56947517620847,
        "timestamp": "2025-12-08T03:50:06.662121+00:00",
        "meta_object_name": "KOMPSAT-3A",
        "meta_object_id": "2015-014A",
        "meta_epoch": "2025-12-07T05:39:14.264064",
        "meta_mean_motion": 15.43652195,
        "meta_eccentricity": 0.00043007,
        "meta_inclination": 97.6785,
        "meta_ra_of_asc_node": 315.2789,
        "meta_arg_of_pericenter": 138.5802,
        "meta_mean_anomaly": 221.5772,
        "meta_ephemeris_type": 0,
        "meta_classification_type": "U",
        "meta_norad_cat_id": 40536,
        "meta_element_set_no": 999,
        "meta_rev_at_epoch": 59210,
        "meta_bstar": 0.00063102359,
        "meta_mean_motion_dot": 0.00028408,
        "meta_mean_motion_ddot": 0,
        "tle_line1": "1 40536U 15014A   25341.23558176  .00028408  00000+0  63102-3 0  9997",
        "tle_line2": "2 40536  97.6785 315.2789 0004300 138.5802 221.5772 15.43652195592105"
      },
      "geometry": {
        "type": "Point",
        "coordinates": [
          -154.52017169566693,
          81.78885912562555
        ]
      }
    },
    {
      "type": "Feature",
      "properties": {
        "norad_id": 40697,
        "name": "SENTINEL-2A",
        "group": "resource",
        "lat": -30.12849538978618,
        "lon": 59.778404496487774,
        "alt_km": 795.2861850035279,
        "timestamp": "2025-12-08T03:50:06.662131+00:00",
        "meta_object_name": "SENTINEL-2A",
        "meta_object_id": "2015-028A",
        "meta_epoch": "2025-12-07T07:50:15.699840",
        "meta_mean_motion": 14.30824228,
        "meta_eccentricity": 0.00010258,
        "meta_inclination": 98.57,
        "meta_ra_of_asc_node": 53.9365,
        "meta_arg_of_pericenter": 94.4949,
        "meta_mean_anomaly": 265.6352,
        "meta_ephemeris_type": 0,
        "meta_classification_type": "U",
        "meta_norad_cat_id": 40697,
        "meta_element_set_no": 999,
        "meta_rev_at_epoch": 54629,
        "meta_bstar": 0.00014084413,
        "meta_mean_motion_dot": 3.26e-06,
        "meta_mean_motion_ddot": 0,
        "tle_line1": "1 40697U 15028A   25341.32657060  .00000326  00000+0  14084-3 0  9996",
        "tle_line2": "2 40697  98.5700  53.9365 0001025  94.4949 265.6352 14.30824228546294"
      },
      "geometry": {
        "type": "Point",
        "coordinates": [
          59.778404496487774,
          -30.12849538978618
        ]
      }
    },
    {
      "type": "Feature",
      "properties": {
        "norad_id": 40701,
        "name": "GAOFEN-8",
        "group": "resource",
        "lat": 44.27137279659232,
        "lon": 152.50726600813238,
        "alt_km": 449.897323715305,
        "timestamp": "2025-12-08T03:50:06.662142+00:00",
        "meta_object_name": "GAOFEN-8",
        "meta_object_id": "2015-030A",
        "meta_epoch": "2025-12-07T07:20:44.499840",
        "meta_mean_motion": 15.38280161,
        "meta_eccentricity": 0.00113507,
        "meta_inclination": 97.691,
        "meta_ra_of_asc_node": 159.1831,
        "meta_arg_of_pericenter": 156.9225,
        "meta_mean_anomaly": 203.2532,
        "meta_ephemeris_type": 0,
        "meta_classification_type": "U",
        "meta_norad_cat_id": 40701,
        "meta_element_set_no": 999,
        "meta_rev_at_epoch": 58187,
        "meta_bstar": 0.00072133599,
        "meta_mean_motion_dot": 0.00027244,
        "meta_mean_motion_ddot": 0,
        "tle_line1": "1 40701U 15030A   25341.30607060  .00027244  00000+0  72134-3 0  9996",
        "tle_line2": "2 40701  97.6910 159.1831 0011350 156.9225 203.2532 15.38280161581875"
      },
      "geometry": {
        "type": "Point",
        "coordinates": [
          152.50726600813238,
          44.27137279659232
        ]
      }
    },
    {
      "type": "Feature",
      "properties": {
        "norad_id": 40718,
        "name": "CARBONITE 1 (CBNT-1)",
        "group": "resource",
        "lat": 6.426404885766158,
        "lon": -15.728147992413172,
        "alt_km": 613.8833965183685,
        "timestamp": "2025-12-08T03:50:06.662151+00:00",
        "meta_object_name": "CARBONITE 1 (CBNT-1)",
        "meta_object_id": "2015-032D",
        "meta_epoch": "2025-12-07T05:59:58.448256",
        "meta_mean_motion": 14.82704507,
        "meta_eccentricity": 0.00140764,
        "meta_inclination": 97.6402,
        "meta_ra_of_asc_node": 162.5362,
        "meta_arg_of_pericenter": 199.7344,
        "meta_mean_anomaly": 160.3327,
        "meta_ephemeris_type": 0,
        "meta_classification_type": "U",
        "meta_norad_cat_id": 40718,
        "meta_element_set_no": 999,
        "meta_rev_at_epoch": 56089,
        "meta_bstar": 0.0005362377,
        "meta_mean_motion_dot": 4.285e-05,
        "meta_mean_motion_ddot": 0,
        "tle_line1": "1 40718U 15032D   25341.24998204  .00004285  00000+0  53624-3 0  9995",
        "tle_line2": "2 40718  97.6402 162.5362 0014076 199.7344 160.3327 14.82704507560898"
      },
      "geometry": {
        "type": "Point",
        "coordinates": [
          -15.728147992413172,
          6.426404885766158
        ]
      }
    },
    {
      "type": "Feature",
      "properties": {
        "norad_id": 40878,
        "name": "YAOGAN-27",
        "group": "resource",
        "lat": 78.60622030364846,
        "lon": -145.82557840628584,
        "alt_km": 1197.768626008059,
        "timestamp": "2025-12-08T03:50:06.662162+00:00",
        "meta_object_name": "YAOGAN-27",
        "meta_object_id": "2015-040A",
        "meta_epoch": "2025-12-07T07:16:58.828224",
        "meta_mean_motion": 13.16059991,
        "meta_eccentricity": 0.00076757,
        "meta_inclination": 100.1007,
        "meta_ra_of_asc_node": 331.1695,
        "meta_arg_of_pericenter": 300.132,
        "meta_mean_anomaly": 59.9033,
        "meta_ephemeris_type": 0,
        "meta_classification_type": "U",
        "meta_norad_cat_id": 40878,
        "meta_element_set_no": 999,
        "meta_rev_at_epoch": 49242,
        "meta_bstar": 8.3268e-05,
        "meta_mean_motion_dot": -1.1e-07,
        "meta_mean_motion_ddot": 0,
        "tle_line1": "1 40878U 15040A   25341.30345866 -.00000011  00000+0  83268-4 0  9990",
        "tle_line2": "2 40878 100.1007 331.1695 0007675 300.1320  59.9033 13.16059991492424"
      },
      "geometry": {
        "type": "Point",
        "coordinates": [
          -145.82557840628584,
          78.60622030364846
        ]
      }
    }
  ]
}